{
  "type": "FeatureCollection",
  "features": [
    {
      "type": "Feature",
      "properties": {},
      "geometry": {
        "coordinates": [
          [
            [
              -70.66070779350846,
              -33.43109016604847
            ],
            [
              -70.66044603077637,
              -33.43232643516581
            ],
            [
              -70.66018426801944,
              -33.432697800497074
            ],
            [
              -70.65918957018103,
              -33.440277672978915
            ],
            [
              -70.6602366205371,
              -33.44412196615877
            ],
            [
              -70.6599748579481,
              -33.44562905734234
            ],
            [
              -70.64523762418703,
              -33.44241826633705
            ],
            [
              -70.64426910260745,
              -33.4421124705192
            ],
            [
              -70.644871156562,
              -33.44091111937214
            ],
            [
              -70.64466174649064,
              -33.44023398685035
            ],
            [
              -70.6435361672203,
              -33.43798412155127
            ],
            [
              -70.64364087225565,
              -33.436782713241364
            ],
            [
              -70.64350999096146,
              -33.43597448374563
            ],
            [
              -70.64290793700624,
              -33.43475120316278
            ],
            [
              -70.65314285423693,
              -33.43204244907819
            ],
            [
              -70.66041985421121,
              -33.43031666649815
            ],
            [
              -70.66070779350846,
              -33.43109016604847
            ]
          ]
        ],
        "type": "Polygon"
      }
    },
    {
      "type": "Feature",
      "properties": {},
      "geometry": {
        "coordinates": [
          -70.65233139021102,
          -33.43776568491442
        ],
        "type": "Point"
      }
    }
  ]
}